start=new Date('2022-05-21T00:00:00.000Z').valueOf();
sats=[{"MEAN_MOTION_DDOT":"0.0000000000000","TIME_SYSTEM":"UTC","ECCENTRICITY":"0.00015290","RA_OF_ASC_NODE":"77.6677","LAUNCH_DATE":"2020-10-24","CLASSIFICATION_TYPE":"U","EPHEMERIS_TYPE":"0","RCS_SIZE":"LARGE","REV_AT_EPOCH":"8732","SEMIMAJOR_AXIS":"6925.360","NORAD_CAT_ID":"46743","GP_ID":"204047023","OBJECT_ID":"2020-074E","OBJECT_TYPE":"PAYLOAD","COUNTRY_CODE":"US","APOAPSIS":"548.284","MEAN_ELEMENT_THEORY":"SGP4","OBJECT_NAME":"STARLINK-1892","TLE_LINE1":"1 46743U 20074E   22140.55597263  .00000937  00000-0  81817-4 0  9996","TLE_LINE2":"2 46743  53.0545  77.6677 0001529  67.5214 292.5936 15.06396248 87320","DECAY_DATE":null,"SITE":"AFETR","PERIOD":"95.592","INCLINATION":"53.0545","REF_FRAME":"TEME","FILE":"3455387","CENTER_NAME":"EARTH","ARG_OF_PERICENTER":"67.5214","ELEMENT_SET_NO":"999","MEAN_MOTION":"15.06396248","EPOCH":"2022-05-20T13:20:36.035232","MEAN_MOTION_DOT":"0.00000937","PERIAPSIS":"546.166","MEAN_ANOMALY":"292.5936","BSTAR":"0.00008181700000"},{"PERIAPSIS":"545.735","MEAN_MOTION_DOT":"-0.00000627","MEAN_ANOMALY":"313.5415","BSTAR":"-0.00002316400000","MEAN_MOTION":"15.06394665","EPOCH":"2022-05-20T07:24:59.129280","FILE":"3455160","REF_FRAME":"TEME","INCLINATION":"53.0566","ARG_OF_PERICENTER":"46.5753","CENTER_NAME":"EARTH","ELEMENT_SET_NO":"999","DECAY_DATE":null,"PERIOD":"95.592","SITE":"AFETR","OBJECT_NAME":"STARLINK-1894","TLE_LINE2":"2 46744  53.0566  78.7922 0002158  46.5753 313.5415 15.06394665 87263","TLE_LINE1":"1 46744U 20074F   22140.30901770 -.00000627  00000-0 -23164-4 0  9991","REV_AT_EPOCH":"8726","SEMIMAJOR_AXIS":"6925.365","COUNTRY_CODE":"US","OBJECT_TYPE":"PAYLOAD","GP_ID":"204041361","OBJECT_ID":"2020-074F","NORAD_CAT_ID":"46744","MEAN_ELEMENT_THEORY":"SGP4","APOAPSIS":"548.724","CLASSIFICATION_TYPE":"U","LAUNCH_DATE":"2020-10-24","RA_OF_ASC_NODE":"78.7922","EPHEMERIS_TYPE":"0","RCS_SIZE":"LARGE","TIME_SYSTEM":"UTC","MEAN_MOTION_DDOT":"0.0000000000000","ECCENTRICITY":"0.00021580"},{"ELEMENT_SET_NO":"999","ARG_OF_PERICENTER":"343.4505","CENTER_NAME":"EARTH","FILE":"3455160","REF_FRAME":"TEME","INCLINATION":"53.0561","PERIOD":"93.371","SITE":"AFETR","DECAY_DATE":null,"BSTAR":"-0.00007804400000","MEAN_ANOMALY":"16.6439","PERIAPSIS":"438.236","MEAN_MOTION_DOT":"-0.00003817","EPOCH":"2022-05-20T09:39:47.989728","MEAN_MOTION":"15.42242544","RCS_SIZE":"LARGE","EPHEMERIS_TYPE":"0","LAUNCH_DATE":"2020-10-24","CLASSIFICATION_TYPE":"U","RA_OF_ASC_NODE":"31.1961","ECCENTRICITY":"0.00018460","TIME_SYSTEM":"UTC","MEAN_MOTION_DDOT":"0.0000000000000","TLE_LINE2":"2 46745  53.0561  31.1961 0001846 343.4505  16.6439 15.42242544 87942","TLE_LINE1":"1 46745U 20074G   22140.40263877 -.00003817  00000-0 -78044-4 0  9993","OBJECT_NAME":"STARLINK-1898","MEAN_ELEMENT_THEORY":"SGP4","APOAPSIS":"440.753","OBJECT_TYPE":"PAYLOAD","COUNTRY_CODE":"US","GP_ID":"204040134","NORAD_CAT_ID":"46745","OBJECT_ID":"2020-074G","REV_AT_EPOCH":"8794","SEMIMAJOR_AXIS":"6817.629"},{"ELEMENT_SET_NO":"999","ARG_OF_PERICENTER":"44.0118","CENTER_NAME":"EARTH","INCLINATION":"53.0577","REF_FRAME":"TEME","FILE":"3455436","SITE":"AFETR","PERIOD":"95.593","DECAY_DATE":null,"BSTAR":"0.00004858200000","MEAN_ANOMALY":"316.1034","MEAN_MOTION_DOT":"0.00000442","PERIAPSIS":"545.831","EPOCH":"2022-05-20T12:32:50.569728","MEAN_MOTION":"15.06388471","RCS_SIZE":"LARGE","EPHEMERIS_TYPE":"0","RA_OF_ASC_NODE":"77.8367","LAUNCH_DATE":"2020-10-24","CLASSIFICATION_TYPE":"U","ECCENTRICITY":"0.00020480","TIME_SYSTEM":"UTC","MEAN_MOTION_DDOT":"0.0000000000000","TLE_LINE1":"1 46746U 20074H   22140.52280752  .00000442  00000-0  48582-4 0  9991","TLE_LINE2":"2 46746  53.0577  77.8367 0002048  44.0118 316.1034 15.06388471 87316","OBJECT_NAME":"STARLINK-1905","APOAPSIS":"548.667","MEAN_ELEMENT_THEORY":"SGP4","OBJECT_ID":"2020-074H","GP_ID":"204048497","NORAD_CAT_ID":"46746","OBJECT_TYPE":"PAYLOAD","COUNTRY_CODE":"US","SEMIMAJOR_AXIS":"6925.384","REV_AT_EPOCH":"8731"},{"TIME_SYSTEM":"UTC","MEAN_MOTION_DDOT":"0.0000000000000","ECCENTRICITY":"0.00018460","EPHEMERIS_TYPE":"0","RA_OF_ASC_NODE":"79.1118","CLASSIFICATION_TYPE":"U","LAUNCH_DATE":"2020-10-24","RCS_SIZE":"LARGE","NORAD_CAT_ID":"46747","GP_ID":"204041135","OBJECT_ID":"2020-074J","OBJECT_TYPE":"PAYLOAD","COUNTRY_CODE":"US","SEMIMAJOR_AXIS":"6925.387","REV_AT_EPOCH":"8725","APOAPSIS":"548.530","MEAN_ELEMENT_THEORY":"SGP4","OBJECT_NAME":"STARLINK-1908","TLE_LINE1":"1 46747U 20074J   22140.23899844 -.00003006  00000-0 -18304-3 0  9997","TLE_LINE2":"2 46747  53.0580  79.1118 0001846  60.4373 299.6800 15.06387450 87255","SITE":"AFETR","PERIOD":"95.593","DECAY_DATE":null,"ARG_OF_PERICENTER":"60.4373","CENTER_NAME":"EARTH","INCLINATION":"53.0580","REF_FRAME":"TEME","FILE":"3455160","ELEMENT_SET_NO":"999","MEAN_MOTION":"15.06387450","EPOCH":"2022-05-20T05:44:09.465216","MEAN_ANOMALY":"299.6800","MEAN_MOTION_DOT":"-0.00003006","PERIAPSIS":"545.974","BSTAR":"-0.00018304000000"},{"PERIAPSIS":"545.941","MEAN_MOTION_DOT":"-0.00000995","MEAN_ANOMALY":"291.9821","BSTAR":"-0.00004788100000","MEAN_MOTION":"15.06403169","EPOCH":"2022-05-20T05:54:44.979552","FILE":"3455160","INCLINATION":"53.0557","REF_FRAME":"TEME","ARG_OF_PERICENTER":"68.1361","CENTER_NAME":"EARTH","ELEMENT_SET_NO":"999","DECAY_DATE":null,"PERIOD":"95.592","SITE":"AFETR","OBJECT_NAME":"STARLINK-1910","TLE_LINE2":"2 46748  53.0557  79.0807 0001823  68.1361 291.9821 15.06403169 87255","TLE_LINE1":"1 46748U 20074K   22140.24635393 -.00000995  00000-0 -47881-4 0  9993","REV_AT_EPOCH":"8725","SEMIMAJOR_AXIS":"6925.339","OBJECT_TYPE":"PAYLOAD","COUNTRY_CODE":"US","NORAD_CAT_ID":"46748","GP_ID":"204040863","OBJECT_ID":"2020-074K","MEAN_ELEMENT_THEORY":"SGP4","APOAPSIS":"548.466","LAUNCH_DATE":"2020-10-24","CLASSIFICATION_TYPE":"U","RA_OF_ASC_NODE":"79.0807","EPHEMERIS_TYPE":"0","RCS_SIZE":"LARGE","TIME_SYSTEM":"UTC","MEAN_MOTION_DDOT":"0.0000000000000","ECCENTRICITY":"0.00018230"},{"RCS_SIZE":"LARGE","CLASSIFICATION_TYPE":"U","LAUNCH_DATE":"2020-10-24","RA_OF_ASC_NODE":"77.8604","EPHEMERIS_TYPE":"0","ECCENTRICITY":"0.00017530","TIME_SYSTEM":"UTC","MEAN_MOTION_DDOT":"0.0000000000000","TLE_LINE2":"2 46749  53.0556  77.8604 0001753  44.9552 315.1579 15.06400987 87313","TLE_LINE1":"1 46749U 20074L   22140.51910741  .00000382  00000-0  44532-4 0  9995","OBJECT_NAME":"STARLINK-1911","MEAN_ELEMENT_THEORY":"SGP4","APOAPSIS":"548.425","REV_AT_EPOCH":"8731","SEMIMAJOR_AXIS":"6925.346","COUNTRY_CODE":"US","OBJECT_TYPE":"PAYLOAD","GP_ID":"204048091","OBJECT_ID":"2020-074L","NORAD_CAT_ID":"46749","ELEMENT_SET_NO":"999","FILE":"3455449","INCLINATION":"53.0556","REF_FRAME":"TEME","ARG_OF_PERICENTER":"44.9552","CENTER_NAME":"EARTH","DECAY_DATE":null,"PERIOD":"95.592","SITE":"AFETR","BSTAR":"0.00004453200000","PERIAPSIS":"545.997","MEAN_MOTION_DOT":"0.00000382","MEAN_ANOMALY":"315.1579","EPOCH":"2022-05-20T12:27:30.880224","MEAN_MOTION":"15.06400987"},{"ECCENTRICITY":"0.00017930","MEAN_MOTION_DDOT":"0.0000000000000","TIME_SYSTEM":"UTC","RCS_SIZE":"LARGE","EPHEMERIS_TYPE":"0","LAUNCH_DATE":"2020-10-24","CLASSIFICATION_TYPE":"U","RA_OF_ASC_NODE":"77.8695","MEAN_ELEMENT_THEORY":"SGP4","APOAPSIS":"548.505","COUNTRY_CODE":"US","OBJECT_TYPE":"PAYLOAD","GP_ID":"204039885","OBJECT_ID":"2020-074N","NORAD_CAT_ID":"46751","REV_AT_EPOCH":"8729","SEMIMAJOR_AXIS":"6925.398","TLE_LINE2":"2 46751  53.0560  77.8695 0001793  66.3121 293.8056 15.06383747 87298","TLE_LINE1":"1 46751U 20074N   22140.51543598 -.00001810  00000-0 -10266-3 0  9995","OBJECT_NAME":"STARLINK-1920","PERIOD":"95.593","SITE":"AFETR","DECAY_DATE":null,"ELEMENT_SET_NO":"999","ARG_OF_PERICENTER":"66.3121","CENTER_NAME":"EARTH","FILE":"3455160","REF_FRAME":"TEME","INCLINATION":"53.0560","EPOCH":"2022-05-20T12:22:13.668672","MEAN_MOTION":"15.06383747","BSTAR":"-0.00010266000000","MEAN_ANOMALY":"293.8056","PERIAPSIS":"546.022","MEAN_MOTION_DOT":"-0.00001810"},{"RCS_SIZE":"LARGE","EPHEMERIS_TYPE":"0","RA_OF_ASC_NODE":"77.8031","LAUNCH_DATE":"2020-10-24","CLASSIFICATION_TYPE":"U","ECCENTRICITY":"0.00017040","TIME_SYSTEM":"UTC","MEAN_MOTION_DDOT":"0.0000000000000","TLE_LINE1":"1 46752U 20074P   22140.52649123  .00000465  00000-0  50117-4 0  9991","TLE_LINE2":"2 46752  53.0547  77.8031 0001704  46.0352 314.0777 15.06389987 87299","OBJECT_NAME":"STARLINK-1921","APOAPSIS":"548.424","MEAN_ELEMENT_THEORY":"SGP4","GP_ID":"204040637","NORAD_CAT_ID":"46752","OBJECT_ID":"2020-074P","OBJECT_TYPE":"PAYLOAD","COUNTRY_CODE":"US","REV_AT_EPOCH":"8729","SEMIMAJOR_AXIS":"6925.379","ELEMENT_SET_NO":"999","ARG_OF_PERICENTER":"46.0352","CENTER_NAME":"EARTH","INCLINATION":"53.0547","REF_FRAME":"TEME","FILE":"3455160","SITE":"AFETR","PERIOD":"95.593","DECAY_DATE":null,"BSTAR":"0.00005011700000","MEAN_ANOMALY":"314.0777","MEAN_MOTION_DOT":"0.00000465","PERIAPSIS":"546.064","EPOCH":"2022-05-20T12:38:08.842272","MEAN_MOTION":"15.06389987"},{"ELEMENT_SET_NO":"999","FILE":"3455160","REF_FRAME":"TEME","INCLINATION":"53.0564","CENTER_NAME":"EARTH","ARG_OF_PERICENTER":"57.2441","DECAY_DATE":null,"PERIOD":"95.592","SITE":"AFETR","BSTAR":"0.00010792000000","PERIAPSIS":"545.879","MEAN_MOTION_DOT":"0.00001326","MEAN_ANOMALY":"302.8732","EPOCH":"2022-05-20T13:25:54.354432","MEAN_MOTION":"15.06402581","RCS_SIZE":"LARGE","CLASSIFICATION_TYPE":"U","LAUNCH_DATE":"2020-10-24","RA_OF_ASC_NODE":"77.6607","EPHEMERIS_TYPE":"0","ECCENTRICITY":"0.00019160","TIME_SYSTEM":"UTC","MEAN_MOTION_DDOT":"0.0000000000000","TLE_LINE2":"2 46753  53.0564  77.6607 0001916  57.2441 302.8732 15.06402581 87308","TLE_LINE1":"1 46753U 20074Q   22140.55965688  .00001326  00000-0  10792-3 0  9993","OBJECT_NAME":"STARLINK-1922","MEAN_ELEMENT_THEORY":"SGP4","APOAPSIS":"548.533","SEMIMAJOR_AXIS":"6925.341","REV_AT_EPOCH":"8730","OBJECT_TYPE":"PAYLOAD","COUNTRY_CODE":"US","OBJECT_ID":"2020-074Q","GP_ID":"204041362","NORAD_CAT_ID":"46753"}];
